{
  "type": "FeatureCollection",
  "features": [
    {
      "type": "Feature",
      "properties": {
        "norad_id": 36987,
        "name": "FENGYUN 1C DEB",
        "group": "fengyun-1c-debris",
        "lat": -26.422525448525928,
        "lon": 30.95421557712741,
        "alt_km": 1259.4139989578862,
        "timestamp": "2025-12-02T10:50:47.563084+00:00",
        "meta_object_name": "FENGYUN 1C DEB",
        "meta_object_id": "1999-025EBT",
        "meta_epoch": "2025-11-28T09:30:32.513760",
        "meta_mean_motion": 13.45837794,
        "meta_eccentricity": 0.03190959,
        "meta_inclination": 100.8194,
        "meta_ra_of_asc_node": 212.0317,
        "meta_arg_of_pericenter": 80.8699,
        "meta_mean_anomaly": 282.8381,
        "meta_ephemeris_type": 0,
        "meta_classification_type": "U",
        "meta_norad_cat_id": 36987,
        "meta_element_set_no": 999,
        "meta_rev_at_epoch": 60684,
        "meta_bstar": 0.0012826403,
        "meta_mean_motion_dot": 9.91e-06,
        "meta_mean_motion_ddot": 0,
        "tle_line1": "1 36987U 99025EBT 25332.39620965  .00000991  00000+0  12826-2 0  9992",
        "tle_line2": "2 36987 100.8194 212.0317 0319095  80.8699 282.8381 13.45837794606848"
      },
      "geometry": {
        "type": "Point",
        "coordinates": [
          30.95421557712741,
          -26.422525448525928
        ]
      }
    },
    {
      "type": "Feature",
      "properties": {
        "norad_id": 36994,
        "name": "FENGYUN 1C DEB",
        "group": "fengyun-1c-debris",
        "lat": -21.323959470638062,
        "lon": -57.17859592961907,
        "alt_km": 850.6101686312031,
        "timestamp": "2025-12-02T10:50:47.563094+00:00",
        "meta_object_name": "FENGYUN 1C DEB",
        "meta_object_id": "1999-025ECA",
        "meta_epoch": "2025-12-02T04:02:29.946624",
        "meta_mean_motion": 13.90778611,
        "meta_eccentricity": 0.0115031,
        "meta_inclination": 98.6418,
        "meta_ra_of_asc_node": 299.1542,
        "meta_arg_of_pericenter": 322.4253,
        "meta_mean_anomaly": 36.8909,
        "meta_ephemeris_type": 0,
        "meta_classification_type": "U",
        "meta_norad_cat_id": 36994,
        "meta_element_set_no": 999,
        "meta_rev_at_epoch": 80760,
        "meta_bstar": 0.0002151,
        "meta_mean_motion_dot": 2.43e-06,
        "meta_mean_motion_ddot": 0,
        "tle_line1": "1 36994U 99025ECA 25336.16840216  .00000243  00000+0  21510-3 0  9993",
        "tle_line2": "2 36994  98.6418 299.1542 0115031 322.4253  36.8909 13.90778611807602"
      },
      "geometry": {
        "type": "Point",
        "coordinates": [
          -57.17859592961907,
          -21.323959470638062
        ]
      }
    },
    {
      "type": "Feature",
      "properties": {
        "norad_id": 36995,
        "name": "FENGYUN 1C DEB",
        "group": "fengyun-1c-debris",
        "lat": 78.6695036043916,
        "lon": 168.8874521559261,
        "alt_km": 875.2344503370123,
        "timestamp": "2025-12-02T10:50:47.563104+00:00",
        "meta_object_name": "FENGYUN 1C DEB",
        "meta_object_id": "1999-025ECB",
        "meta_epoch": "2025-11-29T22:37:55.370208",
        "meta_mean_motion": 14.04864642,
        "meta_eccentricity": 0.00391893,
        "meta_inclination": 98.3442,
        "meta_ra_of_asc_node": 213.6723,
        "meta_arg_of_pericenter": 347.903,
        "meta_mean_anomaly": 12.1195,
        "meta_ephemeris_type": 0,
        "meta_classification_type": "U",
        "meta_norad_cat_id": 36995,
        "meta_element_set_no": 999,
        "meta_rev_at_epoch": 63377,
        "meta_bstar": 0.00012319947,
        "meta_mean_motion_dot": 1.6e-06,
        "meta_mean_motion_ddot": 0,
        "tle_line1": "1 36995U 99025ECB 25333.94300197  .00000160  00000+0  12320-3 0  9993",
        "tle_line2": "2 36995  98.3442 213.6723 0039189 347.9030  12.1195 14.04864642633778"
      },
      "geometry": {
        "type": "Point",
        "coordinates": [
          168.8874521559261,
          78.6695036043916
        ]
      }
    },
    {
      "type": "Feature",
      "properties": {
        "norad_id": 36996,
        "name": "FENGYUN 1C DEB",
        "group": "fengyun-1c-debris",
        "lat": -56.85074298713315,
        "lon": 142.32234108626307,
        "alt_km": 813.9760690785006,
        "timestamp": "2025-12-02T10:50:47.563114+00:00",
        "meta_object_name": "FENGYUN 1C DEB",
        "meta_object_id": "1999-025ECC",
        "meta_epoch": "2025-11-27T05:46:51.154176",
        "meta_mean_motion": 14.11461211,
        "meta_eccentricity": 0.02552856,
        "meta_inclination": 98.2247,
        "meta_ra_of_asc_node": 124.7451,
        "meta_arg_of_pericenter": 33.8599,
        "meta_mean_anomaly": 87.2847,
        "meta_ephemeris_type": 0,
        "meta_classification_type": "U",
        "meta_norad_cat_id": 36996,
        "meta_element_set_no": 999,
        "meta_rev_at_epoch": 59473,
        "meta_bstar": 0.00085126792,
        "meta_mean_motion_dot": 2.056e-05,
        "meta_mean_motion_ddot": 0,
        "tle_line1": "1 36996U 99025ECC 25331.24086984  .00002056  00000+0  85127-3 0  9991",
        "tle_line2": "2 36996  98.2247 124.7451 0255285  33.8599  87.2847 14.11461211594731"
      },
      "geometry": {
        "type": "Point",
        "coordinates": [
          142.32234108626307,
          -56.85074298713315
        ]
      }
    },
    {
      "type": "Feature",
      "properties": {
        "norad_id": 37003,
        "name": "FENGYUN 1C DEB",
        "group": "fengyun-1c-debris",
        "lat": -22.10820882158672,
        "lon": 176.84764909670974,
        "alt_km": 843.4981021710291,
        "timestamp": "2025-12-02T10:50:47.563123+00:00",
        "meta_object_name": "FENGYUN 1C DEB",
        "meta_object_id": "1999-025ECK",
        "meta_epoch": "2025-11-29T08:00:12.278880",
        "meta_mean_motion": 13.96183433,
        "meta_eccentricity": 0.00964489,
        "meta_inclination": 98.8482,
        "meta_ra_of_asc_node": 357.4784,
        "meta_arg_of_pericenter": 198.9753,
        "meta_mean_anomaly": 177.4394,
        "meta_ephemeris_type": 0,
        "meta_classification_type": "U",
        "meta_norad_cat_id": 37003,
        "meta_element_set_no": 999,
        "meta_rev_at_epoch": 60470,
        "meta_bstar": 0.00050828845,
        "meta_mean_motion_dot": 6.84e-06,
        "meta_mean_motion_ddot": 0,
        "tle_line1": "1 37003U 99025ECK 25333.33347545  .00000684  00000+0  50829-3 0  9992",
        "tle_line2": "2 37003  98.8482 357.4784 0096448 198.9753 177.4394 13.96183433604708"
      },
      "geometry": {
        "type": "Point",
        "coordinates": [
          176.84764909670974,
          -22.10820882158672
        ]
      }
    },
    {
      "type": "Feature",
      "properties": {
        "norad_id": 37006,
        "name": "FENGYUN 1C DEB",
        "group": "fengyun-1c-debris",
        "lat": 19.428236007184637,
        "lon": -139.35078306017286,
        "alt_km": 760.1067594189954,
        "timestamp": "2025-12-02T10:50:47.563133+00:00",
        "meta_object_name": "FENGYUN 1C DEB",
        "meta_object_id": "1999-025ECN",
        "meta_epoch": "2025-11-30T22:17:22.604640",
        "meta_mean_motion": 14.48720025,
        "meta_eccentricity": 0.02561349,
        "meta_inclination": 99.2981,
        "meta_ra_of_asc_node": 222.2839,
        "meta_arg_of_pericenter": 283.324,
        "meta_mean_anomaly": 73.9509,
        "meta_ephemeris_type": 0,
        "meta_classification_type": "U",
        "meta_norad_cat_id": 37006,
        "meta_element_set_no": 999,
        "meta_rev_at_epoch": 64943,
        "meta_bstar": 0.00098281369,
        "meta_mean_motion_dot": 5.562e-05,
        "meta_mean_motion_ddot": 0,
        "tle_line1": "1 37006U 99025ECN 25334.92873385  .00005562  00000+0  98281-3 0  9991",
        "tle_line2": "2 37006  99.2981 222.2839 0256134 283.3240  73.9509 14.48720025649439"
      },
      "geometry": {
        "type": "Point",
        "coordinates": [
          -139.35078306017286,
          19.428236007184637
        ]
      }
    },
    {
      "type": "Feature",
      "properties": {
        "norad_id": 37008,
        "name": "FENGYUN 1C DEB",
        "group": "fengyun-1c-debris",
        "lat": 46.70023347941413,
        "lon": -74.98696378768209,
        "alt_km": 900.815460747378,
        "timestamp": "2025-12-02T10:50:47.563143+00:00",
        "meta_object_name": "FENGYUN 1C DEB",
        "meta_object_id": "1999-025ECQ",
        "meta_epoch": "2025-12-02T03:23:31.472736",
        "meta_mean_motion": 14.0785726,
        "meta_eccentricity": 0.0061224,
        "meta_inclination": 99.135,
        "meta_ra_of_asc_node": 94.8677,
        "meta_arg_of_pericenter": 283.1071,
        "meta_mean_anomaly": 76.3269,
        "meta_ephemeris_type": 0,
        "meta_classification_type": "U",
        "meta_norad_cat_id": 37008,
        "meta_element_set_no": 999,
        "meta_rev_at_epoch": 60165,
        "meta_bstar": 0.0013271,
        "meta_mean_motion_dot": 2.244e-05,
        "meta_mean_motion_ddot": 0,
        "tle_line1": "1 37008U 99025ECQ 25336.14133649  .00002244  00000+0  13271-2 0  9990",
        "tle_line2": "2 37008  99.1350  94.8677 0061224 283.1071  76.3269 14.07857260601656"
      },
      "geometry": {
        "type": "Point",
        "coordinates": [
          -74.98696378768209,
          46.70023347941413
        ]
      }
    }
  ]
}